COSMOS 2520             
1 42907U 17046A   26173.53967391  .00000139  00000+0  00000+0 0  9993
2 42907   0.0442  96.2036 0000779  74.8601 338.9459  1.00273541 32457
TDRS 13                 
1 42915U 17047A   26173.74236785 -.00000099  00000+0  00000+0 0  9998
2 42915   3.4530   2.8922 0014826 106.5507  57.2930  1.00272298 32402
QZS-3 (MICHIBIKI-3)     
1 42917U 17048A   26173.84108227 -.00000344  00000+0  00000+0 0  9994
2 42917   0.0604 155.9950 0002112 291.4222 253.4195  1.00273784 32317
AMAZONAS 5              
1 42934U 17053A   26173.58990084 -.00000280  00000+0  00000+0 0  9999
2 42934   0.0302 328.9200 0001925  76.8418  16.3662  1.00270624 32094
ASIASAT 9               
1 42942U 17057A   26173.84004227  .00000000  00000+0  00000+0 0  9995
2 42942   0.0419  50.9591 0002546  29.2929 255.3366  1.00264399 31914
INTELSAT 37E (IS-37E)   
1 42950U 17059A   26173.74106785 -.00000138  00000+0  00000+0 0  9990
2 42950   0.0004  70.8560 0002890  45.2826  43.5588  1.00270644 32123
BSAT-4A                 
1 42951U 17059B   26173.80503645 -.00000347  00000+0  00000+0 0  9996
2 42951   0.0336   3.6374 0004142  66.4630 240.5182  1.00273001 31857
QZS-4 (MICHIBIKI-4)     
1 42965U 17062A   26169.35012920 -.00000360  00000+0  00000+0 0  9996
2 42965  40.1070 343.4662 0745018 271.8091 274.2172  1.00250086 31811
SES-11 (ECHOSTAR 105)   
1 42967U 17063A   26173.65253714 -.00000087  00000+0  00000+0 0  9991
2 42967   0.0174  18.8692 0002912  58.8833 323.0306  1.00271436 31774
KOREASAT 5A             
1 42984U 17067A   26173.85521108 -.00000355  00000+0  00000+0 0  9999
2 42984   0.0094 333.8844 0000711 102.8040 255.3753  1.00272385 31584
ALCOMSAT 1              
1 43039U 17078A   26173.73968118 -.00000183  00000+0  00000+0 0  9995
2 43039   0.0136 284.5614 0002460 160.0498  67.7819  1.00272279 31351
SBIRS GEO-3 (USA 282)   
1 43162U 18009A   26173.78432679  .00000130  00000+0  00000+0 0  9991
2 43162   2.1883  12.4012 0002127  70.4518 311.0581  1.00272361 30900
AL YAH 3                
1 43174U 18012A   26173.81192722 -.00000153  00000+0  00000+0 0  9990
2 43174   1.5672  83.0514 0004013   6.0766  94.0327  1.00272253 30905
SES-14                  
1 43175U 18012B   26173.80646720 -.00000275  00000+0  00000+0 0  9997
2 43175   0.0182  30.4898 0001070  55.4943  67.8200  1.00270921  7083
GOES 17                 
1 43226U 18022A   26173.65557049 -.00000180  00000+0  00000+0 0  9998
2 43226   0.9514  85.6088 0000495  16.4454 315.2567  1.00273217 30471
HISPASAT 30W-6          
1 43228U 18023A   26173.73872784 -.00000214  00000+0  00000+0 0  9994
2 43228   0.0467  46.2355 0005849  28.7594  71.8458  1.00270400 30464
SUPERBIRD-B3            
1 43271U 18033A   26173.77752958 -.00000089  00000+0  00000+0 0  9997
2 43271   0.0192 301.0290 0001329 162.3569 249.4758  1.00271068 30112
HYLAS 4                 
1 43272U 18033B   26173.45278898 -.00000232  00000+0  00000+0 0  9999
2 43272   0.0186  18.1122 0001088  59.4323 322.5653  1.00268693 30119
IRNSS-1I                
1 43286U 18035A   26166.83981681  .00000062  00000+0  00000+0 0  9991
2 43286  28.7520  74.2167 0017811 181.5598   5.5147  1.00272046 30064
USA 283                 
1 43339U 18036A   26170.53794801  .00000000  00000+0  00000+0 0  9991
2 43339   0.0091  53.6723 0000086  77.7836 104.0737  1.00268506 25313
BANGABANDHUSAT-1        
1 43463U 18044A   26173.05531372 -.00000362  00000+0  00000+0 0  9992
2 43463   0.0397  93.4106 0001974   6.7391 309.1046  1.00272646 29755
SES-12                  
1 43488U 18049A   26173.42822541 -.00000268  00000+0  00000+0 0  9991
2 43488   0.0138  15.1769 0000639 274.3741 230.2117  1.00271609 29470
FENGYUN 2H              
1 43491U 18050A   26173.83159563 -.00000127  00000+0  00000+0 0  9993
2 43491   3.0469  79.0159 0001730 133.1415  77.5871  1.00269443 29493
BEIDOU-2 IGSO-7         
1 43539U 18057A   26172.91033100 -.00000017  00000+0  00000+0 0  9997
2 43539  55.1965 163.0153 0104952 238.0014 306.3526  1.00249439 29171
TELSTAR 19V             
1 43562U 18059A   26173.80343385 -.00000277  00000+0  00000+0 0  9991
2 43562   0.0161 171.1236 0002740 295.2980  30.7926  1.00272731 29202
TELKOM 4 (MERAH PUTIH)  
1 43587U 18064A   26173.82419841  .00000000  00000+0  00000+0 0  9990
2 43587   0.0209  24.5445 0001753  95.7328 195.4381  1.00268806 28938
TELSTAR 18V             
1 43611U 18069A   26173.27295760 -.00000292  00000+0  00000+0 0  9998
2 43611   0.0201 290.5487 0001814 153.4973  62.6711  1.00274917 28690
AZERSPACE 2 (IS-38)     
1 43632U 18074A   26173.82484882  .00000000  00000+0  00000+0 0  9999
2 43632   0.0223   3.6107 0001597  88.0745 161.3720  1.00270485 28500
HORIZONS-3E             
1 43633U 18074B   26172.85130581 -.00000029  00000+0  00000+0 0  9998
2 43633   0.0194 176.7629 0000473  78.6152 130.1421  1.00278734 28381
AEHF-4 (USA 288)        
1 43651U 18079A   26173.80256719 -.00000273  00000+0  00000+0 0  9992
2 43651   1.4337   4.4857 0060274 355.9859 131.9157  1.00271189 28354
