OBJECT_NAME,OBJECT_ID,EPOCH,MEAN_MOTION,ECCENTRICITY,INCLINATION,RA_OF_ASC_NODE,ARG_OF_PERICENTER,MEAN_ANOMALY,EPHEMERIS_TYPE,CLASSIFICATION_TYPE,NORAD_CAT_ID,ELEMENT_SET_NO,REV_AT_EPOCH,BSTAR,MEAN_MOTION_DOT,MEAN_MOTION_DDOT
COSMOS 2520,2017-046A,2026-06-22T12:57:07.825824,1.00273541,.00007796,0.0442,96.2036,74.8601,338.9459,0,U,42907,999,3245,0,.139E-5,0
TDRS 13,2017-047A,2026-06-22T17:49:00.582240,1.00272298,.00148266,3.4530,2.8922,106.5507,57.2930,0,U,42915,999,3240,0,-.99E-6,0
QZS-3 (MICHIBIKI-3),2017-048A,2026-06-22T20:11:09.508128,1.00273784,.00021125,0.0604,155.9950,291.4222,253.4195,0,U,42917,999,3231,0,-.344E-5,0
AMAZONAS 5,2017-053A,2026-06-22T14:09:27.432576,1.00270624,.00019251,0.0302,328.9200,76.8418,16.3662,0,U,42934,999,3209,0,-.28E-5,0
ASIASAT 9,2017-057A,2026-06-22T20:09:39.652128,1.00264399,.00025464,0.0419,50.9591,29.2929,255.3366,0,U,42942,999,3191,0,0,0
INTELSAT 37E (IS-37E),2017-059A,2026-06-22T17:47:08.262240,1.00270644,.00028906,0.0004,70.8560,45.2826,43.5588,0,U,42950,999,3212,0,-.138E-5,0
BSAT-4A,2017-059B,2026-06-22T19:19:15.149280,1.00273001,.00041429,0.0336,3.6374,66.4630,240.5182,0,U,42951,999,3185,0,-.347E-5,0
QZS-4 (MICHIBIKI-4),2017-062A,2026-06-18T08:24:11.162880,1.00250086,.07450188,40.1070,343.4662,271.8091,274.2172,0,U,42965,999,3181,0,-.36E-5,0
SES-11 (ECHOSTAR 105),2017-063A,2026-06-22T15:39:39.208896,1.00271436,.00029129,0.0174,18.8692,58.8833,323.0306,0,U,42967,999,3177,0,-.87E-6,0
KOREASAT 5A,2017-067A,2026-06-22T20:31:30.237312,1.00272385,.00007115,0.0094,333.8844,102.8040,255.3753,0,U,42984,999,3158,0,-.355E-5,0
ALCOMSAT 1,2017-078A,2026-06-22T17:45:08.453952,1.00272279,.00024607,0.0136,284.5614,160.0498,67.7819,0,U,43039,999,3135,0,-.183E-5,0
SBIRS GEO-3 (USA 282),2018-009A,2026-06-22T18:49:25.834656,1.00272361,.00021279,2.1883,12.4012,70.4518,311.0581,0,U,43162,999,3090,0,.13E-5,0
AL YAH 3,2018-012A,2026-06-22T19:29:10.511808,1.00272253,.00040132,1.5672,83.0514,6.0766,94.0327,0,U,43174,999,3090,0,-.153E-5,0
SES-14,2018-012B,2026-06-22T19:21:18.766080,1.00270921,.00010704,0.0182,30.4898,55.4943,67.8200,0,U,43175,999,708,0,-.275E-5,0
GOES 17,2018-022A,2026-06-22T15:44:01.290336,1.00273217,.0000495,0.9514,85.6088,16.4454,315.2567,0,U,43226,999,3047,0,-.18E-5,0
HISPASAT 30W-6,2018-023A,2026-06-22T17:43:46.085376,1.00270400,.00058494,0.0467,46.2355,28.7594,71.8458,0,U,43228,999,3046,0,-.214E-5,0
SUPERBIRD-B3,2018-033A,2026-06-22T18:39:38.555712,1.00271068,.00013295,0.0192,301.0290,162.3569,249.4758,0,U,43271,999,3011,0,-.89E-6,0
HYLAS 4,2018-033B,2026-06-22T10:52:00.967872,1.00268693,.0001088,0.0186,18.1122,59.4323,322.5653,0,U,43272,999,3011,0,-.232E-5,0
IRNSS-1I,2018-035A,2026-06-15T20:09:20.172384,1.00272046,.00178117,28.7520,74.2167,181.5598,5.5147,0,U,43286,999,3006,0,.62E-6,0
USA 283,2018-036A,2026-06-19T12:54:38.708064,1.00268506,.0000086,0.0091,53.6723,77.7836,104.0737,0,U,43339,999,2531,0,0,0
BANGABANDHUSAT-1,2018-044A,2026-06-22T01:19:39.105408,1.00272646,.00019748,0.0397,93.4106,6.7391,309.1046,0,U,43463,999,2975,0,-.362E-5,0
SES-12,2018-049A,2026-06-22T10:16:38.675424,1.00271609,.00006395,0.0138,15.1769,274.3741,230.2117,0,U,43488,999,2947,0,-.268E-5,0
FENGYUN 2H,2018-050A,2026-06-22T19:57:29.862432,1.00269443,.00017302,3.0469,79.0159,133.1415,77.5871,0,U,43491,999,2949,0,-.127E-5,0
BEIDOU-2 IGSO-7,2018-057A,2026-06-21T21:50:52.598400,1.00249439,.01049526,55.1965,163.0153,238.0014,306.3526,0,U,43539,999,2917,0,-.17E-6,0
TELSTAR 19V,2018-059A,2026-06-22T19:16:56.684640,1.00272731,.00027409,0.0161,171.1236,295.2980,30.7926,0,U,43562,999,2920,0,-.277E-5,0
TELKOM 4 (MERAH PUTIH),2018-064A,2026-06-22T19:46:50.742624,1.00268806,.00017536,0.0209,24.5445,95.7328,195.4381,0,U,43587,999,2893,0,0,0
TELSTAR 18V,2018-069A,2026-06-22T06:33:03.536640,1.00274917,.00018141,0.0201,290.5487,153.4973,62.6711,0,U,43611,999,2869,0,-.292E-5,0
AZERSPACE 2 (IS-38),2018-074A,2026-06-22T19:47:46.938048,1.00270485,.00015975,0.0223,3.6107,88.0745,161.3720,0,U,43632,999,2850,0,0,0
HORIZONS-3E,2018-074B,2026-06-21T20:25:52.821984,1.00278734,.00004732,0.0194,176.7629,78.6152,130.1421,0,U,43633,999,2838,0,-.29E-6,0
AEHF-4 (USA 288),2018-079A,2026-06-22T19:15:41.805216,1.00271189,.00602746,1.4337,4.4857,355.9859,131.9157,0,U,43651,999,2835,0,-.273E-5,0
